#aV2007  9  3  0  0   .00000000      96 DD+AD WGS84 FIT  NGA
## 1443  86400.00000000   900.00000000 54346  .0000000000000
+   31     1  2  3  4  5  6  7  8  9 10 11 12 13 14 16 17 18
+         19 20 21 22 23 24 25 26 27 28 29 30 31 32  0  0  0
+          0  0  0  0  0  0  0  0  0  0  0  0  0  0  0  0  0
+          0  0  0  0  0  0  0  0  0  0  0  0  0  0  0  0  0
+          0  0  0  0  0  0  0  0  0  0  0  0  0  0  0  0  0
++         0  0  0  0  0  0  0  0  0  0  0  0  0  0  0  0  0
++         0  0  0  0  0  0  0  0  0  0  0  0  0  0  0  0  0
++         0  0  0  0  0  0  0  0  0  0  0  0  0  0  0  0  0
++         0  0  0  0  0  0  0  0  0  0  0  0  0  0  0  0  0
++         0  0  0  0  0  0  0  0  0  0  0  0  0  0  0  0  0
%c cc cc ccc ccc cccc cccc cccc cccc ccccc ccccc ccccc ccccc
%c cc cc ccc ccc cccc cccc cccc cccc ccccc ccccc ccccc ccccc
%f  0.0000000  0.000000000  0.00000000000  0.000000000000000
%f  0.0000000  0.000000000  0.00000000000  0.000000000000000
%i    0    0    0    0      0      0      0      0         0
%i    0    0    0    0      0      0      0      0         0
/*      NGA, ST. LOUIS,MO.                                  
/*   EPHEMERIS COMPUTED FROM  3 DAYS OF DATA                
/* CCCCCCCCCCCCCCCCCCCCCCCCCCCCCCCCCCCCCCCCCCCCCCCCCCCCCCCCC
/* CCCCCCCCCCCCCCCCCCCCCCCCCCCCCCCCCCCCCCCCCCCCCCCCCCCCCCCCC
*  2007  9  3 13 15   .00000000                                                 
P  1  -9319.309527 -14494.948315  20441.110016    150.198940                    
V  1  25309.498156   2111.680456  13098.278266       .024138                    
P  2  13117.295513  23247.304057  -1554.895914    133.790917                    
V  2  -1917.372086   2920.690408  31127.241897       .027740                    
P  3 -17974.830002 -11476.588110 -16259.062501    110.536503                    
V  3  20101.050249  -3107.525958 -19962.211035       .054859                    
P  4   4028.599238  24206.570043   9621.437627     -2.728374                    
V  4  -8395.091776  -9773.669500  28259.409722      -.026868                    
P  5  18525.422682  -9937.945326  15890.965739    354.614943                    
V  5  -7675.906567  19448.554893  20928.549228       .355357                    
P  6  22520.665636  -8005.341124 -11431.083869    246.762185                    
V  6  14779.292745   3424.231990  26255.752841      -.004424                    
P  7  21093.430918  -9505.589376 -12737.566314   -116.383123                    
V  7  16786.330868   2879.244042  24933.930694     -1.073389                    
P  8  -3498.557286  20085.524259 -16878.601958   -121.356788                    
V  8 -10188.134102 -18846.610311 -20894.141123      -.013955                    
P  9  18062.732658   8506.614245  17001.992427     86.061898                    
V  9   9473.704069  20697.573927 -19529.727999       .016443                    
P 10   7627.798236  14400.879718 -21024.735978     54.259221                    
V 10 -15820.928601  21252.423157   9176.125732      -.557575                    
P 11 -20107.098472  -4285.205216  16849.956941     23.153875                    
V 11 -10827.543799 -19075.475108 -17343.151976       .005247                    
P 12  17930.401843  -2541.125164  19502.712755    -54.882257                    
V 12 -12448.635300  21227.687754  14343.603070      -.012798                    
P 13 -22331.375938   6310.469316 -13005.556981    203.498419                    
V 13 -16082.393937  -2955.754784  26421.818395       .030203                    
P 14   4759.528232 -14158.094314  22040.324687     39.224816                    
V 14  27590.364707   2540.595903  -4435.220047       .022121                    
P 16  -2822.799058 -18690.669576 -18517.481157    173.393777                    
V 16  14609.921181 -18745.044568  16783.596965       .023141                    
P 17  -6765.593438  14449.262649  21232.081322     55.773239                    
V 17 -26838.446539  -2466.442161  -7013.539623      -.012042                    
P 18  17595.958690 -19089.949076  -4457.623481   -237.846405                    
V 18   -717.314085   6771.297286 -31097.465476       .016730                    
P 19 -24759.177242  -7504.643086  -6227.573442     62.727583                    
V 19   8278.732420  -1685.059300 -30271.429084       .025497                    
P 20 -18885.710609   6527.723841  17380.983542    -29.055168                    
V 20  10416.858934 -19819.880406  18682.873267      -.005508                    
P 21  11025.640236 -12164.037279 -20630.837890     78.454537                    
V 21  12329.380758  23743.690999  -7945.021656      -.001521                    
P 22   9982.434923 -23336.143069   7905.981841    196.580325                    
V 22   8198.085589  -6219.705796 -29345.662071       .010949                    
P 23 -26508.087437    534.457154  -3092.420425    197.482265                    
V 23  -3660.074672  -2491.257206  31516.367011       .038543                    
P 24  16044.076453   -289.669641 -20917.495890     27.691102                    
V 24  10093.038647  25165.322230   7605.946664       .029287                    
P 25 -13645.397482   6501.166326 -21471.937958    428.222460                    
V 25 -14721.653023 -23983.477287   2206.965479       .113325                    
P 26  23020.868341   9227.855127 -10690.838728     14.475081                    
V 26 -12719.461562   -179.375822 -28231.643339       .136643                    
P 27  -8898.778866  13115.681384 -20628.512526    132.785806                    
V 27 -14727.257068 -23518.317889  -8551.669656       .023320                    
P 28 -11902.501244  23097.045179   4858.852101     -6.214398                    
V 28  -5733.953912   3081.710607 -31211.540969      -.008265                    
P 29  20325.168287  10295.867966 -13774.396584      5.434909                    
V 29 -17672.466431    220.173366 -25164.567652       .001873                    
P 30  18500.698219 -15194.610479  11061.563254     44.541962                    
V 30  -5026.852082  14023.046988  26991.330015       .011975                    
P 31  -6859.073890 -24631.374139   7241.445304     10.766243                    
V 31   6371.398369   6804.220664  30063.987586      -.012083                    
P 32    662.801115 -20313.288243  17636.915852     42.326940                    
V 32  14198.836965 -16059.559531 -19426.583818       .174576                    
EOF
